     2.100          NAVIGATION                              RINEX VERSION / TYPE
fic2rin                                 11/24/2013 00:29:21 PGM / RUN BY / DATE
                                                            END OF HEADER
28 13 11 23  4  0  0.0  .310972332954D-03  .306954461848D-11  .000000000000D+00
     .250000000000D+02 -.455937500000D+02  .423196199249D-08 -.451186283183D+00
    -.229105353355D-05  .190896984423D-01  .439584255219D-05  .515365494347D+04
     .532800000000D+06 -.162050127983D-06 -.352550452181D+00  .108033418655D-06
     .985252940814D+00  .309968750000D+03 -.175320455240D+01 -.841142179805D-08
    -.115361948145D-09  .100000000000D+01  .176700000000D+04  .000000000000D+00
     .240000000000D+01  .000000000000D+00 -.107102096081D-07  .250000000000D+02
     .525606000000D+06  .400000000000D+01
29 13 11 23  4  0  0.0  .489237718284D-03  .318323145621D-11  .000000000000D+00
     .107000000000D+03 -.792812500000D+02  .420481800469D-08  .164268518036D+01
    -.413134694099D-05  .148302514572D-02  .963732600212D-05  .515380286407D+04
     .532800000000D+06  .782310962677D-07  .684311080029D+00  .316649675369D-07
     .967738490581D+00  .196625000000D+03 -.983479116070D+00 -.782496879850D-08
     .146434671020D-10  .100000000000D+01  .176700000000D+04  .000000000000D+00
     .240000000000D+01  .000000000000D+00 -.931322574615D-08  .107000000000D+03
     .525606000000D+06  .400000000000D+01
31 13 11 23  4  0  0.0  .330105889589D-03  .568434188608D-12  .000000000000D+00
     .380000000000D+02  .712812500000D+02  .415803034151D-08  .223479211654D+01
     .393390655518D-05  .813545892015D-02  .609830021858D-05  .515372213364D+04
     .532800000000D+06  .169500708580D-06 -.143263373666D+01  .502914190292D-07
     .979357474581D+00  .268281250000D+03 -.719042155243D+00 -.795425989828D-08
     .489306095849D-10  .100000000000D+01  .176700000000D+04  .000000000000D+00
     .240000000000D+01  .000000000000D+00 -.130385160446D-07  .380000000000D+02
     .525606000000D+06  .400000000000D+01
 1 13 11 23  6  0  0.0  .965287908912D-04  .318323145621D-11  .000000000000D+00
     .470000000000D+02  .112500000000D+01  .450804492102D-08 -.251775935743D+01
     .121071934700D-06  .255004374776D-02  .848434865475D-05  .515368401337D+04
     .540000000000D+06  .558793544769D-08  .168458035266D+01  .186264514923D-08
     .960072593574D+00  .216781250000D+03  .435640834372D+00 -.791068665471D-08
     .326442169055D-09  .100000000000D+01  .176700000000D+04  .000000000000D+00
     .240000000000D+01  .000000000000D+00  .791624188423D-08  .470000000000D+02
     .532806000000D+06  .400000000000D+01
 2 13 11 23  6  0  0.0  .462905969471D-03  .216004991671D-11  .000000000000D+00
     .660000000000D+02  .137500000000D+02  .498699344258D-08 -.168250903475D+01
     .659376382828D-06  .127525856951D-01  .804848968983D-05  .515376053429D+04
     .540000000000D+06  .102445483208D-06  .165901161677D+01 -.264495611191D-06
     .938594472136D+00  .213437500000D+03 -.253855753357D+01 -.802426281418D-08
     .383944564261D-09  .100000000000D+01  .176700000000D+04  .000000000000D+00
     .240000000000D+01  .000000000000D+00 -.204890966415D-07  .660000000000D+02
     .532806000000D+06  .400000000000D+01
 3 13 11 23  6  0  0.0  .289977528155D-03  .522959453519D-11  .000000000000D+00
     .750000000000D+02 -.810625000000D+02  .494377735674D-08 -.151531686440D+01
    -.400841236115D-05  .167015473126D-01  .784359872341D-05  .515374814034D+04
     .540000000000D+06  .264495611191D-06  .486738320228D+00  .394880771637D-06
     .936544329962D+00  .212531250000D+03  .135113339135D+01 -.824105755884D-08
    -.144291724615D-09  .100000000000D+01  .176700000000D+04  .000000000000D+00
     .340000000000D+01  .000000000000D+00 -.465661287308D-08  .750000000000D+02
     .532806000000D+06  .400000000000D+01
 4 13 11 23  6  0  0.0  .348920002580D-05  .454747350886D-12  .000000000000D+00
     .103000000000D+03  .506250000000D+01  .509485507831D-08  .162683771797D+01
     .128522515297D-06  .106879930245D-01  .846572220325D-05  .515364295769D+04
     .540000000000D+06 -.193715095520D-06  .167524631797D+01 -.154599547386D-06
     .937619810280D+00  .209312500000D+03  .105626561471D+01 -.830927468607D-08
     .228223792151D-09  .100000000000D+01  .176700000000D+04  .000000000000D+00
     .240000000000D+01  .000000000000D+00 -.651925802231D-08  .103000000000D+03
     .532806000000D+06  .400000000000D+01
 5 13 11 23  6  0  0.0 -.397011637688D-03  .795807864051D-12  .000000000000D+00
     .230000000000D+02  .525000000000D+01  .497449292188D-08  .552957605521D+00
     .355765223503D-06  .346199283376D-02  .608526170254D-05  .515374252892D+04
     .540000000000D+06  .242143869400D-07  .272559165828D+01  .428408384323D-07
     .948053475147D+00  .253843750000D+03  .335037125470D+00 -.827463038585D-08
    -.142148778210D-09  .100000000000D+01  .176700000000D+04  .000000000000D+00
     .240000000000D+01  .000000000000D+00 -.102445483208D-07  .230000000000D+02
     .532806000000D+06  .400000000000D+01
 6 13 11 23  6  0  0.0  .162095762789D-03  .169393388205D-10  .000000000000D+00
     .320000000000D+02 -.849375000000D+02  .486591697069D-08  .320427841826D+00
    -.458024442196D-05  .825310463551D-02  .823661684990D-05  .515368695831D+04
     .540000000000D+06  .150874257088D-06  .567517991128D+00 -.242143869400D-07
     .943030567866D+00  .209812500000D+03 -.201987922636D+00 -.833641867387D-08
    -.116433421348D-09  .100000000000D+01  .176700000000D+04  .000000000000D+00
     .240000000000D+01  .000000000000D+00 -.512227416039D-08  .320000000000D+02
     .532806000000D+06  .400000000000D+01
 7 13 11 23  6  0  0.0  .283763278276D-03  .420641299570D-11  .000000000000D+00
     .460000000000D+02  .599375000000D+02  .426839208138D-08 -.306130808976D+01
     .313483178616D-05  .700907479040D-02  .621937215328D-05  .515366288757D+04
     .540000000000D+06 -.931322574615D-07 -.143801298884D+01 -.689178705215D-07
     .974394134398D+00  .269593750000D+03 -.283885374424D+01 -.790818655057D-08
     .163578242262D-09  .100000000000D+01  .176700000000D+04  .000000000000D+00
     .240000000000D+01  .000000000000D+00 -.107102096081D-07  .460000000000D+02
     .532806000000D+06  .400000000000D+01
 8 13 11 23  6  0  0.0  .100750476122D-04  .227373675443D-12  .000000000000D+00
     .660000000000D+02  .562187500000D+02  .375765652148D-08  .265110778553D+01
     .287778675556D-05  .134815092897D-01  .583752989769D-05  .515367204666D+04
     .540000000000D+06 -.238418579102D-06 -.134269868408D+01 -.124797224998D-06
     .997383083020D+00  .289562500000D+03 -.280486036594D+01 -.762960351790D-08
     .186079179516D-09  .100000000000D+01  .176700000000D+04  .000000000000D+00
     .240000000000D+01  .000000000000D+00 -.465661287308D-08  .660000000000D+02
     .532806000000D+06  .400000000000D+01
 9 13 11 23  6  0  0.0  .285153742880D-03  .284217094304D-11  .000000000000D+00
     .166000000000D+03  .657500000000D+02  .403195366134D-08 -.188774989033D+01
     .383704900742D-05  .168238312472D-01  .573508441448D-05  .515371112251D+04
     .540000000000D+06  .104308128357D-06 -.145988032695D+01  .353902578354D-06
     .982971271373D+00  .283125000000D+03  .174594594495D+01 -.778210987040D-08
     .176435920693D-09  .100000000000D+01  .176700000000D+04  .000000000000D+00
     .340000000000D+01  .000000000000D+00 -.605359673500D-08  .166000000000D+03
     .532806000000D+06  .400000000000D+01
10 13 11 23  6  0  0.0 -.102944206446D-03 -.159161572810D-11  .000000000000D+00
     .740000000000D+02  .925000000000D+01  .517164399116D-08  .855921154723D+00
     .545755028725D-06  .131798175862D-01  .648386776447D-05  .515367467880D+04
     .540000000000D+06 -.119209289551D-06  .274395451469D+01  .987201929092D-07
     .942877480803D+00  .246593750000D+03  .834385441126D+00 -.851999774925D-08
    -.262868092368D-09  .100000000000D+01  .176700000000D+04  .000000000000D+00
     .340000000000D+01  .000000000000D+00 -.279396772385D-08  .740000000000D+02
     .532806000000D+06  .400000000000D+01
11 13 11 23  6  0  0.0 -.440415460616D-03 -.341060513165D-11  .000000000000D+00
     .640000000000D+02 -.128750000000D+02  .592667544125D-08 -.281961836984D+01
    -.642612576485D-06  .147746393923D-01  .869482755661D-05  .515369462967D+04
     .540000000000D+06  .204890966415D-06  .137419885059D+01 -.558793544769D-07
     .889298234887D+00  .170593750000D+03  .124275937259D+01 -.840570727430D-08
     .332513850537D-09  .100000000000D+01  .176700000000D+04  .000000000000D+00
     .240000000000D+01  .000000000000D+00 -.116415321827D-07  .640000000000D+02
     .532806000000D+06  .400000000000D+01
12 13 11 23  6  0  0.0  .169740989804D-03  .227373675443D-11  .000000000000D+00
     .950000000000D+02 -.480312500000D+02  .408338437506D-08  .291656391311D+01
    -.257417559624D-05  .457138277125D-02  .410713255405D-05  .515372183037D+04
     .540000000000D+06 -.819563865662D-07 -.377089943287D+00 -.689178705215D-07
     .986111249480D+00  .311750000000D+03  .328829095086D+00 -.792640159501D-08
    -.111076055335D-09  .100000000000D+01  .176700000000D+04  .000000000000D+00
     .240000000000D+01  .000000000000D+00 -.121071934700D-07  .950000000000D+02
     .532806000000D+06  .400000000000D+01
13 13 11 23  6  0  0.0  .570504926145D-04 -.386535248253D-11  .000000000000D+00
     .820000000000D+02  .380000000000D+02  .401802450971D-08 -.698143447380D+00
     .175088644028D-05  .505176989827D-02  .925362110138D-05  .515367644119D+04
     .540000000000D+06 -.894069671631D-07 -.240406707262D+01 -.260770320892D-07
     .979807212172D+00  .213562500000D+03  .219715921897D+01 -.780353933445D-08
    -.116790579082D-09  .100000000000D+01  .176700000000D+04  .000000000000D+00
     .240000000000D+01  .000000000000D+00 -.111758708954D-07  .820000000000D+02
     .532806000000D+06  .400000000000D+01
